format  = 'OEF2.0'       ! file format
rectype = 'ML'           ! record type (1L/ML)
refsys  = ECLM J2000     ! default reference system
END_OF_HEADER
2009BD
! Equinoctial elements: a, e*sin(LP), e*cos(LP), tan(i/2)*sin(LN), tan(i/2)*cos(LN), mean long.
 EQU   1.0072104818059677E+00   0.006322346016166  -0.040167165661085    0.002870278375553    0.001754940903557  42.4208474550827
 MJD     55137.563158689 TDT
 MAG  28.236  0.150
! Non-grav parameters: model used, actual number in use, dimension, list of solve for parameters to be currently determined
 LSP   1  2    8    1  2
! Vector of dynamical parameters
 NGR   2.42120210512444E-01 -1.15489586416335E-02
! RMS    4.25968E-08   2.73116E-08   1.95707E-08   4.33284E-09   1.75079E-09   2.57091E-06   4.15754E-02   1.36685E-03
! EIG   1.76843E-10   7.35807E-10   9.02815E-10   2.83667E-09   3.89633E-09   1.80731E-08   9.88447E-04   4.15861E-02
! WEA   0.00000   0.00000   0.00000  -0.00000   0.00000   0.00000  -0.99974  -0.02271
 COV   1.814483820432534E-15  1.036198279205075E-15  6.022398221701200E-16
 COV  -4.205436973618539E-17  1.758509503569359E-17 -7.723309013551800E-15
 COV  -1.704609601466287E-09 -2.830141355635059E-11  7.459213835217246E-16
 COV   4.749177816319823E-16 -5.083394019410674E-17  1.649453554424546E-17
 COV   2.489518017523410E-14 -1.100322923328633E-09 -3.051398082565104E-11
 COV   3.830125094936140E-16 -1.701264577425772E-17  1.275549904400317E-17
 COV   3.053326815237158E-14 -7.134575950806443E-10 -2.289428094262018E-11
 COV   1.877352765210092E-17 -4.969591541886109E-18 -2.184929829964285E-15
 COV   4.988801930996093E-11  2.678845947465171E-12  3.065266910519809E-18
 COV   1.063963459522501E-15 -2.208170894220581E-11 -8.894642101307003E-13
 COV   6.609582264756945E-12 -2.151128771786307E-08 -2.808694053058306E-09
 COV   1.728514831595701E-03  3.923848180766500E-05  1.868272741768865E-06
 NOR   1.918284992708248E+18  1.078926833961828E+18  3.384864766169840E+18
 NOR  -4.123461696944248E+17 -2.420848016710541E+18 -1.038234653164986E+16
 NOR   4.191750836338708E+12 -1.604735994721235E+13  2.870884163996125E+18
 NOR   6.843190812630116E+18  1.766733765862849E+17 -4.359411737269685E+18
 NOR  -3.616531476245269E+16  6.026541383301313E+12 -3.617955078569579E+13
 NOR   1.818271493230981E+19 -4.173104270608688E+17 -1.260726346930787E+19
 NOR  -9.319174395700451E+16  1.611975717407478E+13 -9.820196809498542E+13
 NOR   5.910943473998249E+17  9.576586167176215E+17 -1.590650018327580E+14
 NOR  -5.094006338808715E+11  1.593290569055487E+12  9.981117524016914E+18
 NOR   6.364275018275947E+16 -1.102209833987982E+13  6.818339977266786E+13
 NOR   5.175597097461429E+14 -7.629630359191920E+10  5.210755715510779E+11
 NOR   1.547105050995992E+07 -8.468580050057742E+07  5.553011912926390E+08
!MOID  0.00396    0
!NODES  0.03364 -0.01989
